STARLINK-31737          
1 59537U 24074D   26068.09112546  .00001233  00000+0  54299-4 0  9997
2 59537  43.0045 346.8346 0001081 269.7064  90.3664 15.27589441105926
YAOGAN-43 01D           
1 60461U 24148D   26068.43560480  .00010676  00000+0  37766-3 0  9999
2 60461  35.0010  61.7102 0002556 326.2473  33.8080 15.28369377 87008
